start=new Date('2022-03-31T00:00:00.000Z').valueOf();
sats=[{"CENTER_NAME":"EARTH","TIME_SYSTEM":"UTC","ECCENTRICITY":"0.00008660","CLASSIFICATION_TYPE":"U","ARG_OF_PERICENTER":"66.4996","MEAN_MOTION":"15.73233757","MEAN_ANOMALY":"255.7362","COUNTRY_CODE":"US","OBJECT_TYPE":"PAYLOAD","RA_OF_ASC_NODE":"314.8565","APOAPSIS":"350.247","TLE_LINE2":"2 51758  53.2164 314.8565 0000866  66.4996 255.7362 15.73233757  3726","OBJECT_NAME":"STARLINK-3458","MEAN_ELEMENT_THEORY":"SGP4","RCS_SIZE":"LARGE","EPHEMERIS_TYPE":"0","NORAD_CAT_ID":"51758","MEAN_MOTION_DDOT":"0.0000000000000","EPOCH":"2022-03-30T22:00:00.999936","INCLINATION":"53.2164","REF_FRAME":"TEME","GP_ID":"200100393","PERIAPSIS":"349.081","FILE":"3380787","DECAY_DATE":null,"BSTAR":"-0.00023100000000","SEMIMAJOR_AXIS":"6727.799","OBJECT_ID":"2022-016AW","MEAN_MOTION_DOT":"-0.00032957","LAUNCH_DATE":"2022-02-21","PERIOD":"91.531","ELEMENT_SET_NO":"999","REV_AT_EPOCH":"372","SITE":"AFETR","TLE_LINE1":"1 51758U 22016AW  22089.91667824 -.00032957  00000-0 -23100-3 0  9998"},{"MEAN_MOTION":"15.73232859","TIME_SYSTEM":"UTC","ECCENTRICITY":"0.00012210","CLASSIFICATION_TYPE":"U","ARG_OF_PERICENTER":"84.5400","CENTER_NAME":"EARTH","MEAN_ANOMALY":"238.3650","COUNTRY_CODE":"US","OBJECT_TYPE":"PAYLOAD","APOAPSIS":"350.488","RA_OF_ASC_NODE":"314.8536","EPHEMERIS_TYPE":"0","RCS_SIZE":"LARGE","MEAN_ELEMENT_THEORY":"SGP4","TLE_LINE2":"2 51759  53.2159 314.8536 0001221  84.5400 238.3650 15.73232859  3725","OBJECT_NAME":"STARLINK-3456","INCLINATION":"53.2159","REF_FRAME":"TEME","EPOCH":"2022-03-30T22:00:00.999936","MEAN_MOTION_DDOT":"0.0000000000000","NORAD_CAT_ID":"51759","GP_ID":"200100603","MEAN_MOTION_DOT":"-0.00069781","OBJECT_ID":"2022-016AX","SEMIMAJOR_AXIS":"6727.801","BSTAR":"-0.00049621000000","PERIAPSIS":"348.845","FILE":"3380787","DECAY_DATE":null,"TLE_LINE1":"1 51759U 22016AX  22089.91667824 -.00069781  00000-0 -49621-3 0  9990","ELEMENT_SET_NO":"999","SITE":"AFETR","REV_AT_EPOCH":"372","PERIOD":"91.531","LAUNCH_DATE":"2022-02-21"},{"OBJECT_TYPE":"PAYLOAD","RA_OF_ASC_NODE":"338.9589","APOAPSIS":"350.712","RCS_SIZE":"LARGE","EPHEMERIS_TYPE":"0","TLE_LINE2":"2 51768  53.2174 338.9589 0001402  69.0793 174.5265 15.73197149  3726","OBJECT_NAME":"STARLINK-3622","MEAN_ELEMENT_THEORY":"SGP4","ECCENTRICITY":"0.00014020","TIME_SYSTEM":"UTC","CLASSIFICATION_TYPE":"U","ARG_OF_PERICENTER":"69.0793","MEAN_MOTION":"15.73197149","CENTER_NAME":"EARTH","MEAN_ANOMALY":"174.5265","COUNTRY_CODE":"US","OBJECT_ID":"2022-017A","SEMIMAJOR_AXIS":"6727.903","MEAN_MOTION_DOT":"-0.00012861","PERIAPSIS":"348.825","FILE":"3380787","DECAY_DATE":null,"BSTAR":"-0.00008736800000","ELEMENT_SET_NO":"999","SITE":"AFWTR","REV_AT_EPOCH":"372","TLE_LINE1":"1 51768U 22017A   22089.91667824 -.00012861  00000-0 -87368-4 0  9999","LAUNCH_DATE":"2022-02-25","PERIOD":"91.533","MEAN_MOTION_DDOT":"0.0000000000000","EPOCH":"2022-03-30T22:00:00.999936","INCLINATION":"53.2174","REF_FRAME":"TEME","NORAD_CAT_ID":"51768","GP_ID":"200100499"},{"MEAN_MOTION_DOT":"-0.00041670","OBJECT_ID":"2022-017B","SEMIMAJOR_AXIS":"6727.782","BSTAR":"-0.00029346000000","PERIAPSIS":"348.943","FILE":"3380787","DECAY_DATE":null,"TLE_LINE1":"1 51769U 22017B   22089.91667824 -.00041670  00000-0 -29346-3 0  9991","ELEMENT_SET_NO":"999","REV_AT_EPOCH":"372","SITE":"AFWTR","PERIOD":"91.531","LAUNCH_DATE":"2022-02-25","INCLINATION":"53.2171","REF_FRAME":"TEME","MEAN_MOTION_DDOT":"0.0000000000000","EPOCH":"2022-03-30T22:00:00.999936","NORAD_CAT_ID":"51769","GP_ID":"200100812","OBJECT_TYPE":"PAYLOAD","RA_OF_ASC_NODE":"338.9558","APOAPSIS":"350.350","EPHEMERIS_TYPE":"0","RCS_SIZE":"LARGE","MEAN_ELEMENT_THEORY":"SGP4","TLE_LINE2":"2 51769  53.2171 338.9558 0001045  70.3052 174.5612 15.73239866  3725","OBJECT_NAME":"STARLINK-3621","MEAN_MOTION":"15.73239866","ECCENTRICITY":"0.00010450","TIME_SYSTEM":"UTC","CLASSIFICATION_TYPE":"U","ARG_OF_PERICENTER":"70.3052","CENTER_NAME":"EARTH","MEAN_ANOMALY":"174.5612","COUNTRY_CODE":"US"},{"MEAN_ANOMALY":"165.9365","COUNTRY_CODE":"US","CENTER_NAME":"EARTH","TIME_SYSTEM":"UTC","ECCENTRICITY":"0.00009130","ARG_OF_PERICENTER":"78.2779","CLASSIFICATION_TYPE":"U","MEAN_MOTION":"15.73237796","TLE_LINE2":"2 51770  53.2153 338.9558 0000913  78.2779 165.9365 15.73237796  3722","OBJECT_NAME":"STARLINK-3612","MEAN_ELEMENT_THEORY":"SGP4","RCS_SIZE":"LARGE","EPHEMERIS_TYPE":"0","OBJECT_TYPE":"PAYLOAD","RA_OF_ASC_NODE":"338.9558","APOAPSIS":"350.267","GP_ID":"200100394","NORAD_CAT_ID":"51770","MEAN_MOTION_DDOT":"0.0000000000000","EPOCH":"2022-03-30T22:00:00.999936","INCLINATION":"53.2153","REF_FRAME":"TEME","LAUNCH_DATE":"2022-02-25","PERIOD":"91.531","ELEMENT_SET_NO":"999","SITE":"AFWTR","REV_AT_EPOCH":"372","TLE_LINE1":"1 51770U 22017C   22089.91667824 -.00040921  00000-0 -28811-3 0  9997","FILE":"3380787","PERIAPSIS":"349.038","DECAY_DATE":null,"BSTAR":"-0.00028811000000","OBJECT_ID":"2022-017C","SEMIMAJOR_AXIS":"6727.787","MEAN_MOTION_DOT":"-0.00040921"},{"GP_ID":"200100604","NORAD_CAT_ID":"51771","INCLINATION":"53.2154","REF_FRAME":"TEME","MEAN_MOTION_DDOT":"0.0000000000000","EPOCH":"2022-03-30T22:00:00.999936","PERIOD":"91.533","LAUNCH_DATE":"2022-02-25","TLE_LINE1":"1 51771U 22017D   22089.91667824  .00014736  00000-0  10923-3 0  9996","ELEMENT_SET_NO":"999","REV_AT_EPOCH":"372","SITE":"AFWTR","BSTAR":"0.00010923000000","FILE":"3380787","PERIAPSIS":"348.943","DECAY_DATE":null,"MEAN_MOTION_DOT":"0.00014736","OBJECT_ID":"2022-017D","SEMIMAJOR_AXIS":"6727.899","MEAN_ANOMALY":"174.3051","COUNTRY_CODE":"US","CENTER_NAME":"EARTH","MEAN_MOTION":"15.73198721","TIME_SYSTEM":"UTC","ECCENTRICITY":"0.00012200","CLASSIFICATION_TYPE":"U","ARG_OF_PERICENTER":"71.2116","MEAN_ELEMENT_THEORY":"SGP4","TLE_LINE2":"2 51771  53.2154 338.9537 0001220  71.2116 174.3051 15.73198721  3721","OBJECT_NAME":"STARLINK-3614","EPHEMERIS_TYPE":"0","RCS_SIZE":"LARGE","OBJECT_TYPE":"PAYLOAD","RA_OF_ASC_NODE":"338.9537","APOAPSIS":"350.585"},{"REF_FRAME":"TEME","INCLINATION":"53.2161","MEAN_MOTION_DDOT":"0.0000000000000","EPOCH":"2022-03-30T22:00:00.999936","NORAD_CAT_ID":"51772","GP_ID":"200100182","MEAN_MOTION_DOT":"-0.00011177","SEMIMAJOR_AXIS":"6727.880","OBJECT_ID":"2022-017E","BSTAR":"-0.00007531100000","DECAY_DATE":null,"PERIAPSIS":"348.908","FILE":"3380787","TLE_LINE1":"1 51772U 22017E   22089.91667824 -.00011177  00000-0 -75311-4 0  9998","REV_AT_EPOCH":"372","SITE":"AFWTR","ELEMENT_SET_NO":"999","PERIOD":"91.533","LAUNCH_DATE":"2022-02-25","MEAN_MOTION":"15.73205449","CLASSIFICATION_TYPE":"U","ARG_OF_PERICENTER":"74.2787","TIME_SYSTEM":"UTC","ECCENTRICITY":"0.00012440","CENTER_NAME":"EARTH","COUNTRY_CODE":"US","MEAN_ANOMALY":"173.1859","RA_OF_ASC_NODE":"338.9495","APOAPSIS":"350.582","OBJECT_TYPE":"PAYLOAD","EPHEMERIS_TYPE":"0","RCS_SIZE":"LARGE","MEAN_ELEMENT_THEORY":"SGP4","OBJECT_NAME":"STARLINK-3623","TLE_LINE2":"2 51772  53.2161 338.9495 0001244  74.2787 173.1859 15.73205449  3725"},{"MEAN_MOTION_DDOT":"0.0000000000000","EPOCH":"2022-03-30T22:00:00.999936","REF_FRAME":"TEME","INCLINATION":"53.2173","NORAD_CAT_ID":"51773","GP_ID":"200100710","OBJECT_ID":"2022-017F","SEMIMAJOR_AXIS":"6727.846","MEAN_MOTION_DOT":"-0.00020439","DECAY_DATE":null,"PERIAPSIS":"348.970","FILE":"3380787","BSTAR":"-0.00014146000000","REV_AT_EPOCH":"372","SITE":"AFWTR","ELEMENT_SET_NO":"999","TLE_LINE1":"1 51773U 22017F   22089.91667824 -.00020439  00000-0 -14146-3 0  9998","LAUNCH_DATE":"2022-02-25","PERIOD":"91.532","ARG_OF_PERICENTER":"79.1589","CLASSIFICATION_TYPE":"U","TIME_SYSTEM":"UTC","ECCENTRICITY":"0.00011010","MEAN_MOTION":"15.73217348","CENTER_NAME":"EARTH","COUNTRY_CODE":"US","MEAN_ANOMALY":"167.0185","RA_OF_ASC_NODE":"338.9535","APOAPSIS":"350.451","OBJECT_TYPE":"PAYLOAD","RCS_SIZE":"LARGE","EPHEMERIS_TYPE":"0","OBJECT_NAME":"STARLINK-3624","TLE_LINE2":"2 51773  53.2173 338.9535 0001101  79.1589 167.0185 15.73217348  3725","MEAN_ELEMENT_THEORY":"SGP4"},{"SITE":"AFWTR","REV_AT_EPOCH":"372","ELEMENT_SET_NO":"999","TLE_LINE1":"1 51774U 22017G   22089.91667824  .00019144  00000-0  14054-3 0  9996","LAUNCH_DATE":"2022-02-25","PERIOD":"91.534","OBJECT_ID":"2022-017G","SEMIMAJOR_AXIS":"6727.913","MEAN_MOTION_DOT":"0.00019144","DECAY_DATE":null,"PERIAPSIS":"349.059","FILE":"3380787","BSTAR":"0.00014054000000","GP_ID":"200100077","MEAN_MOTION_DDOT":"0.0000000000000","EPOCH":"2022-03-30T22:00:00.999936","REF_FRAME":"TEME","INCLINATION":"53.2156","NORAD_CAT_ID":"51774","RCS_SIZE":"LARGE","EPHEMERIS_TYPE":"0","OBJECT_NAME":"STARLINK-3629","TLE_LINE2":"2 51774  53.2156 338.9465 0001069  87.4989 161.2415 15.73193758  3728","MEAN_ELEMENT_THEORY":"SGP4","APOAPSIS":"350.497","RA_OF_ASC_NODE":"338.9465","OBJECT_TYPE":"PAYLOAD","COUNTRY_CODE":"US","MEAN_ANOMALY":"161.2415","ARG_OF_PERICENTER":"87.4989","CLASSIFICATION_TYPE":"U","ECCENTRICITY":"0.00010690","TIME_SYSTEM":"UTC","MEAN_MOTION":"15.73193758","CENTER_NAME":"EARTH"},{"PERIOD":"91.531","LAUNCH_DATE":"2022-02-25","TLE_LINE1":"1 51775U 22017H   22089.91667824 -.00033305  00000-0 -23350-3 0  9993","ELEMENT_SET_NO":"999","REV_AT_EPOCH":"372","SITE":"AFWTR","BSTAR":"-0.00023350000000","PERIAPSIS":"348.939","FILE":"3380787","DECAY_DATE":null,"MEAN_MOTION_DOT":"-0.00033305","SEMIMAJOR_AXIS":"6727.803","OBJECT_ID":"2022-017H","GP_ID":"200100287","NORAD_CAT_ID":"51775","INCLINATION":"53.2174","REF_FRAME":"TEME","MEAN_MOTION_DDOT":"0.0000000000000","EPOCH":"2022-03-30T22:00:00.999936","MEAN_ELEMENT_THEORY":"SGP4","TLE_LINE2":"2 51775  53.2174 338.9522 0001084  94.4388 152.3746 15.73232298  3722","OBJECT_NAME":"STARLINK-3620","EPHEMERIS_TYPE":"0","RCS_SIZE":"LARGE","OBJECT_TYPE":"PAYLOAD","RA_OF_ASC_NODE":"338.9522","APOAPSIS":"350.397","MEAN_ANOMALY":"152.3746","COUNTRY_CODE":"US","CENTER_NAME":"EARTH","MEAN_MOTION":"15.73232298","ECCENTRICITY":"0.00010840","TIME_SYSTEM":"UTC","ARG_OF_PERICENTER":"94.4388","CLASSIFICATION_TYPE":"U"}];
